{"type": "FeatureCollection", "features": [{"type": "Feature", "properties": {"norad_id": 2807, "name": "OPS 7218 (TRANSIT 16)", "group": "nnss", "lat": 38.27129204210111, "lon": 173.56314953906258, "alt_km": 1054.7989986206721, "timestamp": "2025-12-18T14:52:08.294313+00:00", "meta": {"OBJECT_NAME": "OPS 7218 (TRANSIT 16)", "OBJECT_ID": "1967-048A", "EPOCH": "2025-12-18T02:03:45.261792", "MEAN_MOTION": 13.50723319, "ECCENTRICITY": 0.00221168, "INCLINATION": 89.673, "RA_OF_ASC_NODE": 353.8389, "ARG_OF_PERICENTER": 99.7882, "MEAN_ANOMALY": 328.5399, "EPHEMERIS_TYPE": 0, "CLASSIFICATION_TYPE": "U", "NORAD_CAT_ID": 2807, "ELEMENT_SET_NO": 999, "REV_AT_EPOCH": 88348, "BSTAR": 0.0001595954, "MEAN_MOTION_DOT": 1.13e-06, "MEAN_MOTION_DDOT": 0}, "tle": {"line1": "1 02807U 67048A   25352.08594053  .00000113  00000+0  15960-3 0  9991", "line2": "2 02807  89.6730 353.8389 0022116  99.7882 328.5399 13.50723319883480"}}, "geometry": {"type": "Point", "coordinates": [173.56314953906258, 38.27129204210111]}}, {"type": "Feature", "properties": {"norad_id": 2965, "name": "OPS 4947 (TRANSIT 17)", "group": "nnss", "lat": -84.06004812362394, "lon": -148.772564769052, "alt_km": 1043.3954950719035, "timestamp": "2025-12-18T14:52:08.294335+00:00", "meta": {"OBJECT_NAME": "OPS 4947 (TRANSIT 17)", "OBJECT_ID": "1967-092A", "EPOCH": "2025-12-18T03:12:52.620768", "MEAN_MOTION": 13.53454894, "ECCENTRICITY": 0.00465388, "INCLINATION": 89.2492, "RA_OF_ASC_NODE": 24.0243, "ARG_OF_PERICENTER": 218.4116, "MEAN_ANOMALY": 200.6577, "EPHEMERIS_TYPE": 0, "CLASSIFICATION_TYPE": "U", "NORAD_CAT_ID": 2965, "ELEMENT_SET_NO": 999, "REV_AT_EPOCH": 87170, "BSTAR": 0.00020683539, "MEAN_MOTION_DOT": 1.51e-06, "MEAN_MOTION_DDOT": 0}, "tle": {"line1": "1 02965U 67092A   25352.13394237  .00000151  00000+0  20684-3 0  9994", "line2": "2 02965  89.2492  24.0243 0046538 218.4116 200.6577 13.53454894871708"}}, "geometry": {"type": "Point", "coordinates": [-148.772564769052, -84.06004812362394]}}, {"type": "Feature", "properties": {"norad_id": 3133, "name": "OPS 7034 (TRANSIT 18)", "group": "nnss", "lat": 12.30961736526719, "lon": -86.35067765580608, "alt_km": 1109.8247414140114, "timestamp": "2025-12-18T14:52:08.294348+00:00", "meta": {"OBJECT_NAME": "OPS 7034 (TRANSIT 18)", "OBJECT_ID": "1968-012A", "EPOCH": "2025-12-18T06:28:02.678880", "MEAN_MOTION": 13.51566954, "ECCENTRICITY": 0.00743883, "INCLINATION": 90.0283, "RA_OF_ASC_NODE": 273.6545, "ARG_OF_PERICENTER": 153.1777, "MEAN_ANOMALY": 317.519, "EPHEMERIS_TYPE": 0, "CLASSIFICATION_TYPE": "U", "NORAD_CAT_ID": 3133, "ELEMENT_SET_NO": 999, "REV_AT_EPOCH": 56993, "BSTAR": 0.00013795748, "MEAN_MOTION_DOT": 1.01e-06, "MEAN_MOTION_DDOT": 0}, "tle": {"line1": "1 03133U 68012A   25352.26947545  .00000101  00000+0  13796-3 0  9996", "line2": "2 03133  90.0283 273.6545 0074388 153.1777 317.5190 13.51566954569930"}}, "geometry": {"type": "Point", "coordinates": [-86.35067765580608, 12.30961736526719]}}, {"type": "Feature", "properties": {"norad_id": 4507, "name": "NNSS 19 (TRANSIT 19)", "group": "nnss", "lat": -19.227871933341202, "lon": -125.46025377849176, "alt_km": 1016.5573342012294, "timestamp": "2025-12-18T14:52:08.294360+00:00", "meta": {"OBJECT_NAME": "NNSS 19 (TRANSIT 19)", "OBJECT_ID": "1970-067A", "EPOCH": "2025-12-18T04:18:01.412064", "MEAN_MOTION": 13.51316203, "ECCENTRICITY": 0.01702968, "INCLINATION": 90.0052, "RA_OF_ASC_NODE": 234.5377, "ARG_OF_PERICENTER": 277.4674, "MEAN_ANOMALY": 80.7157, "EPHEMERIS_TYPE": 0, "CLASSIFICATION_TYPE": "U", "NORAD_CAT_ID": 4507, "ELEMENT_SET_NO": 999, "REV_AT_EPOCH": 72295, "BSTAR": 0.00013378436, "MEAN_MOTION_DOT": 1.03e-06, "MEAN_MOTION_DDOT": 0}, "tle": {"line1": "1 04507U 70067A   25352.17918301  .00000103  00000+0  13378-3 0  9991", "line2": "2 04507  90.0052 234.5377 0170296 277.4674  80.7157 13.51316203722955"}}, "geometry": {"type": "Point", "coordinates": [-125.46025377849176, -19.227871933341202]}}, {"type": "Feature", "properties": {"norad_id": 6909, "name": "NNSS 20 (TRANSIT 20)", "group": "nnss", "lat": 61.3639648579808, "lon": 74.70254462557556, "alt_km": 925.5692509383134, "timestamp": "2025-12-18T14:52:08.294371+00:00", "meta": {"OBJECT_NAME": "NNSS 20 (TRANSIT 20)", "OBJECT_ID": "1973-081A", "EPOCH": "2025-12-18T05:33:08.837856", "MEAN_MOTION": 13.71436962, "ECCENTRICITY": 0.01565121, "INCLINATION": 89.8562, "RA_OF_ASC_NODE": 254.9719, "ARG_OF_PERICENTER": 62.0588, "MEAN_ANOMALY": 299.6319, "EPHEMERIS_TYPE": 0, "CLASSIFICATION_TYPE": "U", "NORAD_CAT_ID": 6909, "ELEMENT_SET_NO": 999, "REV_AT_EPOCH": 80436, "BSTAR": 0.00023158763, "MEAN_MOTION_DOT": 2.39e-06, "MEAN_MOTION_DDOT": 0}, "tle": {"line1": "1 06909U 73081A   25352.23135229  .00000239  00000+0  23159-3 0  9993", "line2": "2 06909  89.8562 254.9719 0156512  62.0588 299.6319 13.71436962804362"}}, "geometry": {"type": "Point", "coordinates": [74.70254462557556, 61.3639648579808]}}, {"type": "Feature", "properties": {"norad_id": 10457, "name": "TRANSAT", "group": "nnss", "lat": -65.7990263927333, "lon": 77.60536485447905, "alt_km": 1093.5740921437973, "timestamp": "2025-12-18T14:52:08.294382+00:00", "meta": {"OBJECT_NAME": "TRANSAT", "OBJECT_ID": "1977-106A", "EPOCH": "2025-12-18T06:37:40.650816", "MEAN_MOTION": 13.48944416, "ECCENTRICITY": 0.00259204, "INCLINATION": 89.6481, "RA_OF_ASC_NODE": 78.401, "ARG_OF_PERICENTER": 173.5882, "MEAN_ANOMALY": 253.8991, "EPHEMERIS_TYPE": 0, "CLASSIFICATION_TYPE": "U", "NORAD_CAT_ID": 10457, "ELEMENT_SET_NO": 999, "REV_AT_EPOCH": 36818, "BSTAR": 9.9680972e-05, "MEAN_MOTION_DOT": 7.3e-07, "MEAN_MOTION_DDOT": 0}, "tle": {"line1": "1 10457U 77106A   25352.27616494  .00000073  00000+0  99681-4 0  9990", "line2": "2 10457  89.6481  78.4010 0025920 173.5882 253.8991 13.48944416368184"}}, "geometry": {"type": "Point", "coordinates": [77.60536485447905, -65.7990263927333]}}, {"type": "Feature", "properties": {"norad_id": 12458, "name": "NOVA 1", "group": "nnss", "lat": 12.719452542631881, "lon": 91.33540282153997, "alt_km": 1170.5537982945561, "timestamp": "2025-12-18T14:52:08.294392+00:00", "meta": {"OBJECT_NAME": "NOVA 1", "OBJECT_ID": "1981-044A", "EPOCH": "2025-12-18T05:48:57.295584", "MEAN_MOTION": 13.23278969, "ECCENTRICITY": 0.00158954, "INCLINATION": 89.8528, "RA_OF_ASC_NODE": 91.3075, "ARG_OF_PERICENTER": 90.4985, "MEAN_ANOMALY": 286.5895, "EPHEMERIS_TYPE": 0, "CLASSIFICATION_TYPE": "U", "NORAD_CAT_ID": 12458, "ELEMENT_SET_NO": 999, "REV_AT_EPOCH": 15259, "BSTAR": 0.0001082078, "MEAN_MOTION_DOT": 5.5e-07, "MEAN_MOTION_DDOT": 0}, "tle": {"line1": "1 12458U 81044A   25352.24232981  .00000055  00000+0  10821-3 0  9999", "line2": "2 12458  89.8528  91.3075 0015895  90.4985 286.5895 13.23278969152595"}}, "geometry": {"type": "Point", "coordinates": [91.33540282153997, 12.719452542631881]}}, {"type": "Feature", "properties": {"norad_id": 15362, "name": "NOVA 3", "group": "nnss", "lat": -60.47162806734984, "lon": -99.612020456192, "alt_km": 1174.2768545836361, "timestamp": "2025-12-18T14:52:08.294403+00:00", "meta": {"OBJECT_NAME": "NOVA 3", "OBJECT_ID": "1984-110A", "EPOCH": "2025-12-18T06:39:53.604864", "MEAN_MOTION": 13.23045141, "ECCENTRICITY": 0.0030113, "INCLINATION": 90.1223, "RA_OF_ASC_NODE": 80.6, "ARG_OF_PERICENTER": 316.0772, "MEAN_ANOMALY": 97.4539, "EPHEMERIS_TYPE": 0, "CLASSIFICATION_TYPE": "U", "NORAD_CAT_ID": 15362, "ELEMENT_SET_NO": 999, "REV_AT_EPOCH": 98772, "BSTAR": 0.00013552245, "MEAN_MOTION_DOT": 6.5e-07, "MEAN_MOTION_DDOT": 0}, "tle": {"line1": "1 15362U 84110A   25352.27770376  .00000065  00000+0  13552-3 0  9996", "line2": "2 15362  90.1223  80.6000 0030113 316.0772  97.4539 13.23045141987728"}}, "geometry": {"type": "Point", "coordinates": [-99.612020456192, -60.47162806734984]}}, {"type": "Feature", "properties": {"norad_id": 15935, "name": "OSCAR 30", "group": "nnss", "lat": -57.43668652845628, "lon": -80.31617353748751, "alt_km": 1256.0602080814424, "timestamp": "2025-12-18T14:52:08.294414+00:00", "meta": {"OBJECT_NAME": "OSCAR 30", "OBJECT_ID": "1985-066A", "EPOCH": "2025-12-18T06:38:35.725632", "MEAN_MOTION": 13.36079169, "ECCENTRICITY": 0.01692813, "INCLINATION": 90.1656, "RA_OF_ASC_NODE": 99.9377, "ARG_OF_PERICENTER": 68.4544, "MEAN_ANOMALY": 321.0083, "EPHEMERIS_TYPE": 0, "CLASSIFICATION_TYPE": "U", "NORAD_CAT_ID": 15935, "ELEMENT_SET_NO": 999, "REV_AT_EPOCH": 96527, "BSTAR": 0.00011771472, "MEAN_MOTION_DOT": 7.5e-07, "MEAN_MOTION_DDOT": 0}, "tle": {"line1": "1 15935U 85066A   25352.27680238  .00000075  00000+0  11771-3 0  9992", "line2": "2 15935  90.1656  99.9377 0169281  68.4544 321.0083 13.36079169965275"}}, "geometry": {"type": "Point", "coordinates": [-80.31617353748751, -57.43668652845628]}}, {"type": "Feature", "properties": {"norad_id": 15936, "name": "OSCAR 24", "group": "nnss", "lat": -52.31016001145365, "lon": 92.64127178774321, "alt_km": 1205.4811119784763, "timestamp": "2025-12-18T14:52:08.294424+00:00", "meta": {"OBJECT_NAME": "OSCAR 24", "OBJECT_ID": "1985-066B", "EPOCH": "2025-12-18T06:23:57.109344", "MEAN_MOTION": 13.35936527, "ECCENTRICITY": 0.01703923, "INCLINATION": 90.1791, "RA_OF_ASC_NODE": 92.4031, "ARG_OF_PERICENTER": 74.917, "MEAN_ANOMALY": 338.1699, "EPHEMERIS_TYPE": 0, "CLASSIFICATION_TYPE": "U", "NORAD_CAT_ID": 15936, "ELEMENT_SET_NO": 999, "REV_AT_EPOCH": 96717, "BSTAR": 9.4699805e-05, "MEAN_MOTION_DOT": 6.3e-07, "MEAN_MOTION_DDOT": 0}, "tle": {"line1": "1 15936U 85066B   25352.26663321  .00000063  00000+0  94700-4 0  9997", "line2": "2 15936  90.1791  92.4031 0170392  74.9170 338.1699 13.35936527967175"}}, "geometry": {"type": "Point", "coordinates": [92.64127178774321, -52.31016001145365]}}]}